[{"OBJECT_NAME":"SHIYAN-1 (SY-1)","OBJECT_ID":"2004-012A","EPOCH":"2026-03-09T17:40:34.066560","MEAN_MOTION":15.31043463,"ECCENTRICITY":0.00058726,"INCLINATION":97.8764,"RA_OF_ASC_NODE":140.5238,"ARG_OF_PERICENTER":23.6952,"MEAN_ANOMALY":336.4557,"EPHEMERIS_TYPE":0,"CLASSIFICATION_TYPE":"U","NORAD_CAT_ID":28220,"ELEMENT_SET_NO":999,"REV_AT_EPOCH":19586,"BSTAR":0.00054854449,"MEAN_MOTION_DOT":0.00016393,"MEAN_MOTION_DDOT":0},{"OBJECT_NAME":"STARLINK-34266","OBJECT_ID":"2025-167R","EPOCH":"2026-03-09T06:30:00.393696","MEAN_MOTION":15.30187195,"ECCENTRICITY":0.00014315,"INCLINATION":53.1616,"RA_OF_ASC_NODE":28.7498,"ARG_OF_PERICENTER":92.1443,"MEAN_ANOMALY":267.9722,"EPHEMERIS_TYPE":0,"CLASSIFICATION_TYPE":"U","NORAD_CAT_ID":65093,"ELEMENT_SET_NO":999,"REV_AT_EPOCH":3341,"BSTAR":0.00079730713,"MEAN_MOTION_DOT":0.0002332,"MEAN_MOTION_DDOT":0}]
